{
  "type": "FeatureCollection",
  "features": [
    {
      "type": "Feature",
      "properties": {
        "norad_id": 30436,
        "name": "FENGYUN 1C DEB",
        "group": "fengyun-1c-debris",
        "lat": 26.275281360458216,
        "lon": 76.45971340069232,
        "alt_km": 775.3077031217681,
        "timestamp": "2025-12-24T18:55:56.344716+00:00",
        "meta_object_name": "FENGYUN 1C DEB",
        "meta_object_id": "1999-025AEX",
        "meta_epoch": "2025-12-24T05:19:12.008064",
        "meta_mean_motion": 14.22386779,
        "meta_eccentricity": 0.0098284,
        "meta_inclination": 98.4263,
        "meta_ra_of_asc_node": 251.7207,
        "meta_arg_of_pericenter": 99.916,
        "meta_mean_anomaly": 29.8305,
        "meta_ephemeris_type": 0,
        "meta_classification_type": "U",
        "meta_norad_cat_id": 30436,
        "meta_element_set_no": 999,
        "meta_rev_at_epoch": 96600,
        "meta_bstar": 0.0021525889,
        "meta_mean_motion_dot": 4.996e-05,
        "meta_mean_motion_ddot": 0,
        "tle_line1": "1 30436U 99025AEX 25358.22166676  .00004996  00000+0  21526-2 0  9995",
        "tle_line2": "2 30436  98.4263 251.7207 0098284  99.9160  29.8305 14.22386779966006"
      },
      "geometry": {
        "type": "Point",
        "coordinates": [
          76.45971340069232,
          26.275281360458216
        ]
      }
    },
    {
      "type": "Feature",
      "properties": {
        "norad_id": 30437,
        "name": "FENGYUN 1C DEB",
        "group": "fengyun-1c-debris",
        "lat": -34.11289091528656,
        "lon": -166.05501873247505,
        "alt_km": 630.1293924514275,
        "timestamp": "2025-12-24T18:55:56.344726+00:00",
        "meta_object_name": "FENGYUN 1C DEB",
        "meta_object_id": "1999-025AEY",
        "meta_epoch": "2025-12-24T00:29:12.109920",
        "meta_mean_motion": 14.88475475,
        "meta_eccentricity": 0.00354001,
        "meta_inclination": 98.9204,
        "meta_ra_of_asc_node": 19.1881,
        "meta_arg_of_pericenter": 67.1702,
        "meta_mean_anomaly": 351.1408,
        "meta_ephemeris_type": 0,
        "meta_classification_type": "U",
        "meta_norad_cat_id": 30437,
        "meta_element_set_no": 999,
        "meta_rev_at_epoch": 99355,
        "meta_bstar": 0.0023114321,
        "meta_mean_motion_dot": 0.00021706,
        "meta_mean_motion_ddot": 0,
        "tle_line1": "1 30437U 99025AEY 25358.02027905  .00021706  00000+0  23114-2 0  9998",
        "tle_line2": "2 30437  98.9204  19.1881 0035400  67.1702 351.1408 14.88475475993550"
      },
      "geometry": {
        "type": "Point",
        "coordinates": [
          -166.05501873247505,
          -34.11289091528656
        ]
      }
    },
    {
      "type": "Feature",
      "properties": {
        "norad_id": 30438,
        "name": "FENGYUN 1C DEB",
        "group": "fengyun-1c-debris",
        "lat": -1.3123223011109963,
        "lon": -165.05579816784677,
        "alt_km": 836.5069707920356,
        "timestamp": "2025-12-24T18:55:56.344736+00:00",
        "meta_object_name": "FENGYUN 1C DEB",
        "meta_object_id": "1999-025AEZ",
        "meta_epoch": "2025-12-22T00:31:24.750336",
        "meta_mean_motion": 13.92130582,
        "meta_eccentricity": 0.01348933,
        "meta_inclination": 98.7502,
        "meta_ra_of_asc_node": 12.5335,
        "meta_arg_of_pericenter": 161.3823,
        "meta_mean_anomaly": 199.2342,
        "meta_ephemeris_type": 0,
        "meta_classification_type": "U",
        "meta_norad_cat_id": 30438,
        "meta_element_set_no": 999,
        "meta_rev_at_epoch": 95435,
        "meta_bstar": 0.0010275015,
        "meta_mean_motion_dot": 1.376e-05,
        "meta_mean_motion_ddot": 0,
        "tle_line1": "1 30438U 99025AEZ 25356.02181424  .00001376  00000+0  10275-2 0  9999",
        "tle_line2": "2 30438  98.7502  12.5335 0134893 161.3823 199.2342 13.92130582954352"
      },
      "geometry": {
        "type": "Point",
        "coordinates": [
          -165.05579816784677,
          -1.3123223011109963
        ]
      }
    },
    {
      "type": "Feature",
      "properties": {
        "norad_id": 30439,
        "name": "FENGYUN 1C DEB",
        "group": "fengyun-1c-debris",
        "lat": 64.9424498908063,
        "lon": -150.6178520841457,
        "alt_km": 884.3526055843859,
        "timestamp": "2025-12-24T18:55:56.344746+00:00",
        "meta_object_name": "FENGYUN 1C DEB",
        "meta_object_id": "1999-025AFA",
        "meta_epoch": "2025-12-23T23:54:04.805280",
        "meta_mean_motion": 14.08858683,
        "meta_eccentricity": 0.0038342,
        "meta_inclination": 98.7496,
        "meta_ra_of_asc_node": 9.3802,
        "meta_arg_of_pericenter": 304.4766,
        "meta_mean_anomaly": 109.429,
        "meta_ephemeris_type": 0,
        "meta_classification_type": "U",
        "meta_norad_cat_id": 30439,
        "meta_element_set_no": 999,
        "meta_rev_at_epoch": 96950,
        "meta_bstar": 0.0004461,
        "meta_mean_motion_dot": 7.33e-06,
        "meta_mean_motion_ddot": 0,
        "tle_line1": "1 30439U 99025AFA 25357.99588895  .00000733  00000+0  44610-3 0  9997",
        "tle_line2": "2 30439  98.7496   9.3802 0038342 304.4766 109.4290 14.08858683969501"
      },
      "geometry": {
        "type": "Point",
        "coordinates": [
          -150.6178520841457,
          64.9424498908063
        ]
      }
    },
    {
      "type": "Feature",
      "properties": {
        "norad_id": 30441,
        "name": "FENGYUN 1C DEB",
        "group": "fengyun-1c-debris",
        "lat": -31.68019816353959,
        "lon": -97.99879153343458,
        "alt_km": 846.2120557425615,
        "timestamp": "2025-12-24T18:55:56.344756+00:00",
        "meta_object_name": "FENGYUN 1C DEB",
        "meta_object_id": "1999-025AFC",
        "meta_epoch": "2025-12-24T05:41:43.955520",
        "meta_mean_motion": 13.77693266,
        "meta_eccentricity": 0.01843306,
        "meta_inclination": 99.1339,
        "meta_ra_of_asc_node": 87.1686,
        "meta_arg_of_pericenter": 227.1541,
        "meta_mean_anomaly": 131.3998,
        "meta_ephemeris_type": 0,
        "meta_classification_type": "U",
        "meta_norad_cat_id": 30441,
        "meta_element_set_no": 999,
        "meta_rev_at_epoch": 95028,
        "meta_bstar": 0.00058158794,
        "meta_mean_motion_dot": 6.15e-06,
        "meta_mean_motion_ddot": 0,
        "tle_line1": "1 30441U 99025AFC 25358.23731430  .00000615  00000+0  58159-3 0  9995",
        "tle_line2": "2 30441  99.1339  87.1686 0184330 227.1541 131.3998 13.77693266950283"
      },
      "geometry": {
        "type": "Point",
        "coordinates": [
          -97.99879153343458,
          -31.68019816353959
        ]
      }
    },
    {
      "type": "Feature",
      "properties": {
        "norad_id": 30442,
        "name": "FENGYUN 1C DEB",
        "group": "fengyun-1c-debris",
        "lat": -49.074305257083246,
        "lon": 102.95252651617022,
        "alt_km": 781.3636556812753,
        "timestamp": "2025-12-24T18:55:56.344766+00:00",
        "meta_object_name": "FENGYUN 1C DEB",
        "meta_object_id": "1999-025AFD",
        "meta_epoch": "2025-12-22T04:58:33.552192",
        "meta_mean_motion": 14.28699815,
        "meta_eccentricity": 0.00557419,
        "meta_inclination": 98.8668,
        "meta_ra_of_asc_node": 89.957,
        "meta_arg_of_pericenter": 259.8714,
        "meta_mean_anomaly": 99.6176,
        "meta_ephemeris_type": 0,
        "meta_classification_type": "U",
        "meta_norad_cat_id": 30442,
        "meta_element_set_no": 999,
        "meta_rev_at_epoch": 97297,
        "meta_bstar": 0.0021302255,
        "meta_mean_motion_dot": 5.405e-05,
        "meta_mean_motion_ddot": 0,
        "tle_line1": "1 30442U 99025AFD 25356.20733278  .00005405  00000+0  21302-2 0  9994",
        "tle_line2": "2 30442  98.8668  89.9570 0055741 259.8714  99.6176 14.28699815972971"
      },
      "geometry": {
        "type": "Point",
        "coordinates": [
          102.95252651617022,
          -49.074305257083246
        ]
      }
    },
    {
      "type": "Feature",
      "properties": {
        "norad_id": 30443,
        "name": "FENGYUN 1C DEB",
        "group": "fengyun-1c-debris",
        "lat": 67.84953564993971,
        "lon": 148.74140273152457,
        "alt_km": 780.4793756934287,
        "timestamp": "2025-12-24T18:55:56.344776+00:00",
        "meta_object_name": "FENGYUN 1C DEB",
        "meta_object_id": "1999-025AFE",
        "meta_epoch": "2025-12-24T03:22:45.673824",
        "meta_mean_motion": 14.36939668,
        "meta_eccentricity": 0.00267343,
        "meta_inclination": 98.8497,
        "meta_ra_of_asc_node": 305.5734,
        "meta_arg_of_pericenter": 306.5253,
        "meta_mean_anomaly": 53.3471,
        "meta_ephemeris_type": 0,
        "meta_classification_type": "U",
        "meta_norad_cat_id": 30443,
        "meta_element_set_no": 999,
        "meta_rev_at_epoch": 97597,
        "meta_bstar": 0.0023631475,
        "meta_mean_motion_dot": 6.985e-05,
        "meta_mean_motion_ddot": 0,
        "tle_line1": "1 30443U 99025AFE 25358.14080641  .00006985  00000+0  23631-2 0  9990",
        "tle_line2": "2 30443  98.8497 305.5734 0026734 306.5253  53.3471 14.36939668975979"
      },
      "geometry": {
        "type": "Point",
        "coordinates": [
          148.74140273152457,
          67.84953564993971
        ]
      }
    }
  ]
}